OBJECT_NAME,OBJECT_ID,EPOCH,MEAN_MOTION,ECCENTRICITY,INCLINATION,RA_OF_ASC_NODE,ARG_OF_PERICENTER,MEAN_ANOMALY,EPHEMERIS_TYPE,CLASSIFICATION_TYPE,NORAD_CAT_ID,ELEMENT_SET_NO,REV_AT_EPOCH,BSTAR,MEAN_MOTION_DOT,MEAN_MOTION_DDOT
STARLINK-30607,2023-161C,2026-07-08T15:54:39.966048,15.30196265,.00014165,53.1618,313.5987,54.9057,305.2077,0,U,58099,999,15307,.12619429E-3,.338E-4,0
STARLINK-30600,2023-161D,2026-07-08T16:41:56.201568,15.34401081,.00008341,53.1600,322.3726,78.9240,281.1856,0,U,58100,999,15296,.5732003E-4,.1561E-4,0
STARLINK-30605,2023-161E,2026-07-09T08:01:50.383488,15.34397021,.00012644,53.1607,319.9661,74.2634,285.8508,0,U,58101,999,15305,.3425239E-4,.781E-5,0
STARLINK-30592,2023-161F,2026-07-08T15:14:12.262560,15.34396560,.00005946,53.1602,322.7099,92.1252,267.9818,0,U,58102,999,15295,.32246435E-4,.714E-5,0
STARLINK-30589,2023-161G,2026-07-08T15:03:00.131904,15.30205180,.00015178,53.1599,323.8834,41.2188,318.8927,0,U,58103,999,15293,.12195747E-3,.3255E-4,0
STARLINK-30617,2023-161H,2026-07-08T16:35:57.290784,15.34411412,.0001542,53.1620,322.8730,54.3042,305.8104,0,U,58104,999,15295,.12755831E-3,.3937E-4,0
STARLINK-30616,2023-161J,2026-07-09T07:15:35.083296,15.34385853,.00014245,53.1586,306.1108,78.4808,281.6355,0,U,58105,999,15323,.30663837E-4,.659E-5,0
STARLINK-30612,2023-161K,2026-07-08T14:58:14.541888,15.34393249,.00005529,53.1591,308.9975,93.5372,266.5694,0,U,58106,999,15313,.9447818E-4,.2817E-4,0
STARLINK-30421,2023-161L,2026-07-09T07:42:42.308064,15.34393648,.00011538,53.1605,305.4942,100.2740,259.8393,0,U,58107,999,15325,.20456929E-4,.315E-5,0
STARLINK-30611,2023-161M,2026-07-08T14:52:09.957216,15.34397194,.00010083,53.1581,308.9176,115.4764,244.6343,0,U,58108,999,15314,.35740962E-4,.832E-5,0
STARLINK-30606,2023-161N,2026-07-08T15:17:13.174656,15.34398391,.00010807,53.1629,322.7244,104.0150,256.0973,0,U,58109,999,15295,.4260406E-4,.1063E-4,0
STARLINK-30596,2023-161P,2026-07-08T15:05:14.515008,15.34395558,.00016408,53.1633,323.3826,85.0983,275.0207,0,U,58110,999,15294,.422172E-5,-.234E-5,0
STARLINK-30595,2023-161Q,2026-07-09T07:57:52.536384,15.30196776,.00009617,53.1609,320.6556,89.5830,270.5281,0,U,58111,999,15304,.2203359E-5,-.294E-5,0
STARLINK-30593,2023-161R,2026-07-09T07:53:18.619872,15.30200848,.00009979,53.1607,320.6335,104.5133,255.5978,0,U,58112,999,15304,.51678469E-4,.1172E-4,0
STARLINK-30353,2023-161S,2026-07-09T12:49:10.369920,15.30151871,.0002426,53.1581,319.7818,11.9040,348.2018,0,U,58113,999,15307,.19655E-3,.5457E-4,0
STARLINK-30572,2023-161T,2026-07-09T17:13:04.211040,15.30201811,.0000966,53.1608,318.7919,99.5144,260.5966,0,U,58114,999,15310,.47639E-4,.1052E-4,0
STARLINK-30580,2023-161U,2026-07-09T15:38:41.280288,15.34404780,.0000852,53.1604,318.3695,84.6866,275.4234,0,U,58115,999,15309,.83023E-4,.243E-4,0
STARLINK-30493,2023-161V,2026-07-08T16:21:58.386528,15.30128874,.00025155,53.1616,323.7085,167.5965,192.5099,0,U,58116,999,15294,-.2760142E-3,-.8508E-4,0
STARLINK-30601,2023-161W,2026-07-09T12:53:42.216288,15.30209858,.0001108,53.1592,319.8035,79.3967,280.7158,0,U,58117,999,15307,.15263E-3,.4165E-4,0
STARLINK-30795,2023-162A,2026-07-09T15:32:41.085600,15.27585593,.0001216,43.0029,163.3525,277.5814,82.4900,0,U,58118,999,15096,.87847E-4,.2156E-4,0
STARLINK-30765,2023-162B,2026-07-08T10:09:36.621792,15.27587749,.00017224,43.0001,170.4844,275.6530,84.4126,0,U,58119,999,15077,.8275949E-4,.2016E-4,0
STARLINK-30768,2023-162C,2026-07-09T15:36:22.961664,15.27586200,.0001267,43.0034,163.3706,265.0825,94.9882,0,U,58120,999,15096,.51667E-4,.116E-4,0
STARLINK-30799,2023-162D,2026-07-08T10:15:10.446336,15.27569201,.00013309,43.0017,170.5080,259.2084,100.8618,0,U,58121,999,15077,.12242623E-3,.3107E-4,0
STARLINK-30759,2023-162E,2026-07-08T10:07:45.698880,15.27593888,.0001449,43.0005,170.4851,268.6901,91.3784,0,U,58122,999,15078,.26870541E-3,.7142E-4,0
STARLINK-30781,2023-162F,2026-07-08T10:13:18.452928,15.27573177,.00013482,43.0014,170.5101,264.1421,95.9277,0,U,58123,999,15077,.42191239E-4,.899E-5,0
STARLINK-30754,2023-162G,2026-07-08T22:53:58.952256,15.27577966,.00015303,43.0001,167.5788,272.0083,88.0593,0,U,58124,999,14506,.12571428E-3,.3199E-4,0
STARLINK-30766,2023-162H,2026-07-09T15:07:40.817856,15.27581078,.0001096,43.0039,160.6638,261.9395,98.1333,0,U,58125,999,15099,.14773E-4,.144E-5,0
STARLINK-30767,2023-162J,2026-07-09T07:13:11.966016,15.27579871,.00011513,43.0031,162.4834,262.7357,97.3364,0,U,58126,999,15094,.32803518E-4,.641E-5,0
STARLINK-30790,2023-162K,2026-07-09T16:00:27.751104,15.20878913,.0017679,42.9949,169.4909,105.3102,254.9703,0,U,58127,999,15089,.91479E-3,.20496E-3,0
STARLINK-30787,2023-162L,2026-07-09T07:15:02.921760,15.27580778,.00013205,43.0032,162.4921,261.4289,98.6413,0,U,58128,999,15094,.31841101E-4,.614E-5,0
