STARLINK-30607          
1 58099U 23161C   26189.66296257  .00003380  00000+0  12619-3 0  9998
2 58099  53.1618 313.5987 0001416  54.9057 305.2077 15.30196265153073
STARLINK-30600          
1 58100U 23161D   26189.69578937  .00001561  00000+0  57320-4 0  9990
2 58100  53.1600 322.3726 0000834  78.9240 281.1856 15.34401081152962
STARLINK-30605          
1 58101U 23161E   26190.33461092  .00000781  00000+0  34252-4 0  9999
2 58101  53.1607 319.9661 0001264  74.2634 285.8508 15.34397021153058
STARLINK-30592          
1 58102U 23161F   26189.63486415  .00000714  00000+0  32246-4 0  9994
2 58102  53.1602 322.7099 0000594  92.1252 267.9818 15.34396560152951
STARLINK-30589          
1 58103U 23161G   26189.62708486  .00003255  00000+0  12196-3 0  9993
2 58103  53.1599 323.8834 0001517  41.2188 318.8927 15.30205180152933
STARLINK-30617          
1 58104U 23161H   26189.69163531  .00003937  00000+0  12756-3 0  9996
2 58104  53.1620 322.8730 0001542  54.3042 305.8104 15.34411412152951
STARLINK-30616          
1 58105U 23161J   26190.30248939  .00000659  00000+0  30664-4 0  9990
2 58105  53.1586 306.1108 0001424  78.4808 281.6355 15.34385853153233
STARLINK-30612          
1 58106U 23161K   26189.62377942  .00002817  00000+0  94478-4 0  9992
2 58106  53.1591 308.9975 0000552  93.5372 266.5694 15.34393249153132
STARLINK-30421          
1 58107U 23161L   26190.32132301  .00000315  00000+0  20457-4 0  9997
2 58107  53.1605 305.4942 0001153 100.2740 259.8393 15.34393648153255
STARLINK-30611          
1 58108U 23161M   26189.61955969  .00000832  00000+0  35741-4 0  9997
2 58108  53.1581 308.9176 0001008 115.4764 244.6343 15.34397194153144
STARLINK-30606          
1 58109U 23161N   26189.63695804  .00001063  00000+0  42604-4 0  9992
2 58109  53.1629 322.7244 0001080 104.0150 256.0973 15.34398391152955
STARLINK-30596          
1 58110U 23161P   26189.62864022 -.00000234  00000+0  42217-5 0  9994
2 58110  53.1633 323.3826 0001640  85.0983 275.0207 15.34395558152941
STARLINK-30595          
1 58111U 23161Q   26190.33185806 -.00000294  00000+0  22034-5 0  9992
2 58111  53.1609 320.6556 0000961  89.5830 270.5281 15.30196776153041
STARLINK-30593          
1 58112U 23161R   26190.32868773  .00001172  00000+0  51678-4 0  9993
2 58112  53.1607 320.6335 0000997 104.5133 255.5978 15.30200848153040
STARLINK-30353          
1 58113U 23161S   26190.53414780  .00005457  00000+0  19655-3 0  9990
2 58113  53.1581 319.7818 0002426  11.9040 348.2018 15.30151871153073
STARLINK-30572          
1 58114U 23161T   26190.71740985  .00001052  00000+0  47639-4 0  9991
2 58114  53.1608 318.7919 0000966  99.5144 260.5966 15.30201811153101
STARLINK-30580          
1 58115U 23161U   26190.65186667  .00002430  00000+0  83023-4 0  9994
2 58115  53.1604 318.3695 0000852  84.6866 275.4234 15.34404780153090
STARLINK-30493          
1 58116U 23161V   26189.68192577 -.00008508  00000+0 -27601-3 0  9996
2 58116  53.1616 323.7085 0002515 167.5965 192.5099 15.30128874152940
STARLINK-30601          
1 58117U 23161W   26190.53729417  .00004165  00000+0  15263-3 0  9996
2 58117  53.1592 319.8035 0001108  79.3967 280.7158 15.30209858153077
STARLINK-30795          
1 58118U 23162A   26190.64769775  .00002156  00000+0  87847-4 0  9997
2 58118  43.0029 163.3525 0001216 277.5814  82.4900 15.27585593150966
STARLINK-30765          
1 58119U 23162B   26189.42334053  .00002016  00000+0  82759-4 0  9991
2 58119  43.0001 170.4844 0001722 275.6530  84.4126 15.27587749150772
STARLINK-30768          
1 58120U 23162C   26190.65026576  .00001160  00000+0  51667-4 0  9991
2 58120  43.0034 163.3706 0001267 265.0825  94.9882 15.27586200150969
STARLINK-30799          
1 58121U 23162D   26189.42720424  .00003107  00000+0  12243-3 0  9997
2 58121  43.0017 170.5080 0001330 259.2084 100.8618 15.27569201150774
STARLINK-30759          
1 58122U 23162E   26189.42205670  .00007142  00000+0  26871-3 0  9994
2 58122  43.0005 170.4851 0001449 268.6901  91.3784 15.27593888150787
STARLINK-30781          
1 58123U 23162F   26189.42590802  .00000899  00000+0  42191-4 0  9995
2 58123  43.0014 170.5101 0001348 264.1421  95.9277 15.27573177150778
STARLINK-30754          
1 58124U 23162G   26189.95415454  .00003199  00000+0  12571-3 0  9997
2 58124  43.0001 167.5788 0001530 272.0083  88.0593 15.27577966145067
STARLINK-30766          
1 58125U 23162H   26190.63033354  .00000144  00000+0  14773-4 0  9994
2 58125  43.0039 160.6638 0001096 261.9395  98.1333 15.27581078150998
STARLINK-30767          
1 58126U 23162J   26190.30083294  .00000641  00000+0  32804-4 0  9994
2 58126  43.0031 162.4834 0001151 262.7357  97.3364 15.27579871150946
STARLINK-30790          
1 58127U 23162K   26190.66698786  .00020496  00000+0  91479-3 0  9994
2 58127  42.9949 169.4909 0017679 105.3102 254.9703 15.20878913150899
STARLINK-30787          
1 58128U 23162L   26190.30211715  .00000614  00000+0  31841-4 0  9997
2 58128  43.0032 162.4921 0001320 261.4289  98.6413 15.27580778150941
